STARLINK-4320           
1 53059U 22077S   26068.48197990 -.00000435  00000+0 -29317-4 0  9998
2 53059  97.6005 250.0100 0000436 138.2280 221.8978 15.01260038200887
PICO-02A021             
1 60538U 24149BY  26068.15390193  .00008488  00000+0  64833-3 0  9999
2 60538  97.6823 147.9080 0004195   9.5557 350.5747 15.02201963 84718
